ONEWEB-0395             
1 50475U 21132G   26196.54944123  .00000204  00000+0  53873-3 0  9990
2 50475  87.8884  15.4184 0002011  85.0313 275.1045 13.11419301219430
ONEWEB-0396             
1 50476U 21132H   26196.39330689  .00000065  00000+0  13291-3 0  9995
2 50476  87.9197 329.8467 0001746  94.9472 265.1860 13.18686917225352
ONEWEB-0397             
1 50477U 21132J   26196.40847779  .00000073  00000+0  15198-3 0  9998
2 50477  87.9198 329.8438 0001635  97.5960 262.5358 13.18686545225338
ONEWEB-0398             
1 50478U 21132K   26196.51722433 -.00000399  00000+0 -11607-2 0  9993
2 50478  87.8890  15.4180 0002162  88.5758 271.5617 13.11415673219325
ONEWEB-0399             
1 50479U 21132L   26196.50367009  .00000103  00000+0  25543-3 0  9993
2 50479  87.8891  15.4316 0001518  77.6762 282.4536 13.11415059219314
ONEWEB-0400             
1 50480U 21132M   26196.38655423  .00000075  00000+0  15658-3 0  9995
2 50480  87.9198 329.8378 0002056  96.7510 263.3856 13.18685000225321
ONEWEB-0401             
1 50481U 21132N   26196.35621210  .00000023  00000+0  26227-4 0  9998
2 50481  87.9201 329.8413 0001755 105.0562 255.0765 13.18686392225325
ONEWEB-0402             
1 50482U 21132P   26196.39498330  .00000021  00000+0  19889-4 0  9992
2 50482  87.9196 329.8225 0001568 109.8162 250.3139 13.18687375225358
ONEWEB-0403             
1 50483U 21132Q   26196.64791530 -.00000007  00000+0 -51453-4 0  9998
2 50483  87.9196 329.7966 0001814  94.0337 266.1003 13.18686133225348
ONEWEB-0404             
1 50484U 21132R   26196.48501947  .00000561  00000+0  15459-2 0  9999
2 50484  87.8886  15.4323 0001827  80.7024 279.4310 13.11416764219401
ONEWEB-0405             
1 50485U 21132S   26196.35789446 -.00000001  00000+0 -35961-4 0  9991
2 50485  87.9202 329.8396 0002361  96.9843 263.1558 13.18684664225706
ONEWEB-0406             
1 50486U 21132T   26196.34946175 -.00000035  00000+0 -12208-3 0  9990
2 50486  87.9194 329.8559 0001763  81.6349 278.4983 13.18686661225334
ONEWEB-0407             
1 50487U 21132U   26196.41858099  .00000030  00000+0  43036-4 0  9993
2 50487  87.9198 329.8355 0001976 104.1360 255.9991 13.18688015225281
ONEWEB-0409             
1 50488U 21132V   26196.55962432  .00000493  00000+0  13542-2 0  9996
2 50488  87.8892  15.4069 0001921  82.4073 277.7273 13.11417458219306
ONEWEB-0412             
1 50489U 21132W   26196.40679274  .00000032  00000+0  49383-4 0  9993
2 50489  87.9195 329.8452 0001669 105.0542 255.0775 13.18686584225379
ONEWEB-0413             
1 50490U 21132X   26196.41184773  .00000073  00000+0  15327-3 0  9996
2 50490  87.9186 329.8409 0001820 107.4814 252.6518 13.18687417225318
ONEWEB-0414             
1 50491U 21132Y   26196.39667477  .00000051  00000+0  97784-4 0  9995
2 50491  87.9198 329.8290 0001721  98.4367 261.6961 13.18687273225347
ONEWEB-0417             
1 50492U 21132Z   26196.40510230  .00000055  00000+0  10684-3 0  9999
2 50492  87.9190 329.8442 0001872  90.8895 269.2452 13.18687050225328
ONEWEB-0418             
1 50493U 21132AA  26196.41508303  .00000038  00000+0  64690-4 0  9997
2 50493  87.9193 329.8432 0001887  90.0051 270.1297 13.18685878225383
ONEWEB-0419             
1 50494U 21132AB  26196.66174557 -.00000028  00000+0 -10262-3 0  9991
2 50494  87.9199 329.7949 0002086  92.3046 267.8325 13.18665484225334
ONEWEB-0420             
1 50495U 21132AC  26196.39834880 -.00000177  00000+0 -48247-3 0  9993
2 50495  87.9189 329.8478 0001985 103.1393 256.9960 13.18685168225295
ONEWEB-0421             
1 50496U 21132AD  26196.39162817  .00000090  00000+0  19549-3 0  9993
2 50496  87.9191 329.8472 0001514  99.5294 260.6010 13.18686661225331
ONEWEB-0424             
1 50497U 21132AE  26196.35283834  .00000030  00000+0  42273-4 0  9998
2 50497  87.9198 329.8545 0002210  92.9978 267.1408 13.18686884225352
ONEWEB-0426             
1 50498U 21132AF  26196.38740642  .00000106  00000+0  23552-3 0  9999
2 50498  87.9197 329.8385 0001358  81.0437 279.0849 13.18686347225305
ONEWEB-0427             
1 50499U 21132AG  26196.65465970 -.00000023  00000+0 -91794-4 0  9992
2 50499  87.9200 329.7747 0001808  91.1067 269.0273 13.18686494225362
ONEWEB-0429             
1 50500U 21132AH  26196.41352761  .00000004  00000+0 -21526-4 0  9996
2 50500  87.9189 329.8450 0001923 101.8057 258.3291 13.18686869225300
ONEWEB-0430             
1 50501U 21132AJ  26196.40172254  .00000039  00000+0  65421-4 0  9992
2 50501  87.9190 329.8464 0002077 102.0070 258.1295 13.18688493225348
ONEWEB-0432             
1 50502U 21132AK  26196.38474166  .00000057  00000+0  11181-3 0  9990
2 50502  87.9196 329.8355 0002342  97.7985 262.3413 13.18686500225294
ONEWEB-0440             
1 50503U 21132AL  26196.64959237  .00000031  00000+0  44845-4 0  9993
2 50503  87.9198 329.7947 0001713 107.2570 252.8750 13.18686721225328
ONEWEB-0450             
1 50504U 21132AM  26196.41535986  .00000027  00000+0  36293-4 0  9993
2 50504  87.9188 329.8434 0001999 102.9784 257.1571 13.18686488225324
