OBJECT_NAME,OBJECT_ID,EPOCH,MEAN_MOTION,ECCENTRICITY,INCLINATION,RA_OF_ASC_NODE,ARG_OF_PERICENTER,MEAN_ANOMALY,EPHEMERIS_TYPE,CLASSIFICATION_TYPE,NORAD_CAT_ID,ELEMENT_SET_NO,REV_AT_EPOCH,BSTAR,MEAN_MOTION_DOT,MEAN_MOTION_DDOT
ONEWEB-0395,2021-132G,2026-07-15T13:11:11.722272,13.11419301,.0002011,87.8884,15.4184,85.0313,275.1045,0,U,50475,999,21943,.53873163E-3,.204E-5,0
ONEWEB-0396,2021-132H,2026-07-15T09:26:21.715296,13.18686917,.00017461,87.9197,329.8467,94.9472,265.1860,0,U,50476,999,22535,.13291075E-3,.65E-6,0
ONEWEB-0397,2021-132J,2026-07-15T09:48:12.481056,13.18686545,.00016352,87.9198,329.8438,97.5960,262.5358,0,U,50477,999,22533,.15197786E-3,.73E-6,0
ONEWEB-0398,2021-132K,2026-07-15T12:24:48.182112,13.11415673,.00021627,87.8890,15.4180,88.5758,271.5617,0,U,50478,999,21932,-.11606909E-2,-.399E-5,0
ONEWEB-0399,2021-132L,2026-07-15T12:05:17.095776,13.11415059,.00015184,87.8891,15.4316,77.6762,282.4536,0,U,50479,999,21931,.255429E-3,.103E-5,0
ONEWEB-0400,2021-132M,2026-07-15T09:16:38.285472,13.18685000,.00020565,87.9198,329.8378,96.7510,263.3856,0,U,50480,999,22532,.15658032E-3,.75E-6,0
ONEWEB-0401,2021-132N,2026-07-15T08:32:56.725440,13.18686392,.00017559,87.9201,329.8413,105.0562,255.0765,0,U,50481,999,22532,.26226684E-4,.23E-6,0
ONEWEB-0402,2021-132P,2026-07-15T09:28:46.557120,13.18687375,.00015683,87.9196,329.8225,109.8162,250.3139,0,U,50482,999,22535,.19889371E-4,.21E-6,0
ONEWEB-0403,2021-132Q,2026-07-15T15:32:59.881920,13.18686133,.00018141,87.9196,329.7966,94.0337,266.1003,0,U,50483,999,22534,-.51452631E-4,-.7E-7,0
ONEWEB-0404,2021-132R,2026-07-15T11:38:25.682208,13.11416764,.00018273,87.8886,15.4323,80.7024,279.4310,0,U,50484,999,21940,.15459335E-2,.561E-5,0
ONEWEB-0405,2021-132S,2026-07-15T08:35:22.081344,13.18684664,.00023613,87.9202,329.8396,96.9843,263.1558,0,U,50485,999,22570,-.35961377E-4,-.1E-7,0
ONEWEB-0406,2021-132T,2026-07-15T08:23:13.495200,13.18686661,.00017631,87.9194,329.8559,81.6349,278.4983,0,U,50486,999,22533,-.12208322E-3,-.35E-6,0
ONEWEB-0407,2021-132U,2026-07-15T10:02:45.397536,13.18688015,.00019764,87.9198,329.8355,104.1360,255.9991,0,U,50487,999,22528,.43036191E-4,.3E-6,0
ONEWEB-0409,2021-132V,2026-07-15T13:25:51.541248,13.11417458,.00019212,87.8892,15.4069,82.4073,277.7273,0,U,50488,999,21930,.13542381E-2,.493E-5,0
ONEWEB-0412,2021-132W,2026-07-15T09:45:46.892736,13.18686584,.0001669,87.9195,329.8452,105.0542,255.0775,0,U,50489,999,22537,.49382871E-4,.32E-6,0
ONEWEB-0413,2021-132X,2026-07-15T09:53:03.643872,13.18687417,.00018202,87.9186,329.8409,107.4814,252.6518,0,U,50490,999,22531,.15327369E-3,.73E-6,0
ONEWEB-0414,2021-132Y,2026-07-15T09:31:12.700128,13.18687273,.0001721,87.9198,329.8290,98.4367,261.6961,0,U,50491,999,22534,.97784346E-4,.51E-6,0
ONEWEB-0417,2021-132Z,2026-07-15T09:43:20.838720,13.18687050,.00018721,87.9190,329.8442,90.8895,269.2452,0,U,50492,999,22532,.1068353E-3,.55E-6,0
ONEWEB-0418,2021-132AA,2026-07-15T09:57:43.173792,13.18685878,.00018877,87.9193,329.8432,90.0051,270.1297,0,U,50493,999,22538,.64690086E-4,.38E-6,0
ONEWEB-0419,2021-132AB,2026-07-15T15:52:54.817248,13.18665484,.00020863,87.9199,329.7949,92.3046,267.8325,0,U,50494,999,22533,-.10262437E-3,-.28E-6,0
ONEWEB-0420,2021-132AC,2026-07-15T09:33:37.336320,13.18685168,.00019853,87.9189,329.8478,103.1393,256.9960,0,U,50495,999,22529,-.48247378E-3,-.177E-5,0
ONEWEB-0421,2021-132AD,2026-07-15T09:23:56.673888,13.18686661,.00015142,87.9191,329.8472,99.5294,260.6010,0,U,50496,999,22533,.19549112E-3,.9E-6,0
ONEWEB-0424,2021-132AE,2026-07-15T08:28:05.232576,13.18686884,.00022105,87.9198,329.8545,92.9978,267.1408,0,U,50497,999,22535,.42273337E-4,.3E-6,0
ONEWEB-0426,2021-132AF,2026-07-15T09:17:51.914688,13.18686347,.00013589,87.9197,329.8385,81.0437,279.0849,0,U,50498,999,22530,.23552136E-3,.106E-5,0
ONEWEB-0427,2021-132AG,2026-07-15T15:42:42.598080,13.18686494,.00018086,87.9200,329.7747,91.1067,269.0273,0,U,50499,999,22536,-.91794297E-4,-.23E-6,0
ONEWEB-0429,2021-132AH,2026-07-15T09:55:28.785504,13.18686869,.00019231,87.9189,329.8450,101.8057,258.3291,0,U,50500,999,22530,-.21526191E-4,.4E-7,0
ONEWEB-0430,2021-132AJ,2026-07-15T09:38:28.827456,13.18688493,.00020775,87.9190,329.8464,102.0070,258.1295,0,U,50501,999,22534,.6542138E-4,.39E-6,0
ONEWEB-0432,2021-132AK,2026-07-15T09:14:01.679424,13.18686500,.00023429,87.9196,329.8355,97.7985,262.3413,0,U,50502,999,22529,.11181378E-3,.57E-6,0
ONEWEB-0440,2021-132AL,2026-07-15T15:35:24.780768,13.18686721,.0001713,87.9198,329.7947,107.2570,252.8750,0,U,50503,999,22532,.4484467E-4,.31E-6,0
ONEWEB-0450,2021-132AM,2026-07-15T09:58:07.091904,13.18686488,.0001999,87.9188,329.8434,102.9784,257.1571,0,U,50504,999,22532,.36292737E-4,.27E-6,0
